{
  "type": "FeatureCollection",
  "features": [
    {
      "type": "Feature",
      "properties": {
        "norad_id": 38755,
        "name": "SPOT 6",
        "group": "resource",
        "lat": 43.57499869651374,
        "lon": 54.52923908824107,
        "alt_km": 693.4744117008931,
        "timestamp": "2025-12-23T18:59:31.647062+00:00",
        "meta_object_name": "SPOT 6",
        "meta_object_id": "2012-047A",
        "meta_epoch": "2025-12-23T07:15:55.052064",
        "meta_mean_motion": 14.5854129,
        "meta_eccentricity": 0.00012787,
        "meta_inclination": 98.156,
        "meta_ra_of_asc_node": 61.8923,
        "meta_arg_of_pericenter": 78.1597,
        "meta_mean_anomaly": 281.9745,
        "meta_ephemeris_type": 0,
        "meta_classification_type": "U",
        "meta_norad_cat_id": 38755,
        "meta_element_set_no": 999,
        "meta_rev_at_epoch": 70741,
        "meta_bstar": 0.0001063697,
        "meta_mean_motion_dot": 4.49e-06,
        "meta_mean_motion_ddot": 0,
        "tle_line1": "1 38755U 12047A   25357.30272051  .00000449  00000+0  10637-3 0  9990",
        "tle_line2": "2 38755  98.1560  61.8923 0001278  78.1597 281.9745 14.58541290707417"
      },
      "geometry": {
        "type": "Point",
        "coordinates": [
          54.52923908824107,
          43.57499869651374
        ]
      }
    },
    {
      "type": "Feature",
      "properties": {
        "norad_id": 39019,
        "name": "PLEIADES 1B",
        "group": "resource",
        "lat": -56.63485442076595,
        "lon": 82.88354518184256,
        "alt_km": 705.5358914412745,
        "timestamp": "2025-12-23T18:59:31.647072+00:00",
        "meta_object_name": "PLEIADES 1B",
        "meta_object_id": "2012-068A",
        "meta_epoch": "2025-12-23T07:43:49.842624",
        "meta_mean_motion": 14.58562152,
        "meta_eccentricity": 0.00011633,
        "meta_inclination": 98.1786,
        "meta_ra_of_asc_node": 69.8069,
        "meta_arg_of_pericenter": 86.0925,
        "meta_mean_anomaly": 274.0407,
        "meta_ephemeris_type": 0,
        "meta_classification_type": "U",
        "meta_norad_cat_id": 39019,
        "meta_element_set_no": 999,
        "meta_rev_at_epoch": 69521,
        "meta_bstar": 0.00010891397,
        "meta_mean_motion_dot": 4.61e-06,
        "meta_mean_motion_ddot": 0,
        "tle_line1": "1 39019U 12068A   25357.32210466  .00000461  00000+0  10891-3 0  9997",
        "tle_line2": "2 39019  98.1786  69.8069 0001163  86.0925 274.0407 14.58562152695218"
      },
      "geometry": {
        "type": "Point",
        "coordinates": [
          82.88354518184256,
          -56.63485442076595
        ]
      }
    },
    {
      "type": "Feature",
      "properties": {
        "norad_id": 39030,
        "name": "GOKTURK 2",
        "group": "resource",
        "lat": 75.30092321601728,
        "lon": 49.89538329620373,
        "alt_km": 636.0778534443034,
        "timestamp": "2025-12-23T18:59:31.647081+00:00",
        "meta_object_name": "GOKTURK 2",
        "meta_object_id": "2012-073A",
        "meta_epoch": "2025-12-23T07:08:04.788960",
        "meta_mean_motion": 14.75303936,
        "meta_eccentricity": 0.00013738,
        "meta_inclination": 97.6883,
        "meta_ra_of_asc_node": 198.4312,
        "meta_arg_of_pericenter": 107.4524,
        "meta_mean_anomaly": 252.6836,
        "meta_ephemeris_type": 0,
        "meta_classification_type": "U",
        "meta_norad_cat_id": 39030,
        "meta_element_set_no": 999,
        "meta_rev_at_epoch": 69857,
        "meta_bstar": 5.6564321e-05,
        "meta_mean_motion_dot": 3.36e-06,
        "meta_mean_motion_ddot": 0,
        "tle_line1": "1 39030U 12073A   25357.29727765  .00000336  00000+0  56564-4 0  9996",
        "tle_line2": "2 39030  97.6883 198.4312 0001373 107.4524 252.6836 14.75303936698571"
      },
      "geometry": {
        "type": "Point",
        "coordinates": [
          49.89538329620373,
          75.30092321601728
        ]
      }
    },
    {
      "type": "Feature",
      "properties": {
        "norad_id": 39084,
        "name": "LANDSAT 8",
        "group": "resource",
        "lat": 54.293576573712976,
        "lon": 54.119018817124655,
        "alt_km": 696.7523781077352,
        "timestamp": "2025-12-23T18:59:31.647090+00:00",
        "meta_object_name": "LANDSAT 8",
        "meta_object_id": "2013-008A",
        "meta_epoch": "2025-12-23T03:54:26.748576",
        "meta_mean_motion": 14.5711285,
        "meta_eccentricity": 0.00010631,
        "meta_inclination": 98.2058,
        "meta_ra_of_asc_node": 65.0818,
        "meta_arg_of_pericenter": 92.206,
        "meta_mean_anomaly": 267.926,
        "meta_ephemeris_type": 0,
        "meta_classification_type": "U",
        "meta_norad_cat_id": 39084,
        "meta_element_set_no": 999,
        "meta_rev_at_epoch": 67226,
        "meta_bstar": 0.00010478207,
        "meta_mean_motion_dot": 4.27e-06,
        "meta_mean_motion_ddot": 0,
        "tle_line1": "1 39084U 13008A   25357.16280959  .00000427  00000+0  10478-3 0  9993",
        "tle_line2": "2 39084  98.2058  65.0818 0001063  92.2060 267.9260 14.57112850672264"
      },
      "geometry": {
        "type": "Point",
        "coordinates": [
          54.119018817124655,
          54.293576573712976
        ]
      }
    },
    {
      "type": "Feature",
      "properties": {
        "norad_id": 39086,
        "name": "SARAL",
        "group": "resource",
        "lat": 25.988287535011587,
        "lon": 5.783013153226988,
        "alt_km": 780.7277181316513,
        "timestamp": "2025-12-23T18:59:31.647099+00:00",
        "meta_object_name": "SARAL",
        "meta_object_id": "2013-009A",
        "meta_epoch": "2025-12-23T06:32:43.970496",
        "meta_mean_motion": 14.32760508,
        "meta_eccentricity": 0.00029638,
        "meta_inclination": 98.5503,
        "meta_ra_of_asc_node": 181.0656,
        "meta_arg_of_pericenter": 89.0071,
        "meta_mean_anomaly": 271.1452,
        "meta_ephemeris_type": 0,
        "meta_classification_type": "U",
        "meta_norad_cat_id": 39086,
        "meta_element_set_no": 999,
        "meta_rev_at_epoch": 67041,
        "meta_bstar": 5.6791098e-05,
        "meta_mean_motion_dot": 1.11e-06,
        "meta_mean_motion_ddot": 0,
        "tle_line1": "1 39086U 13009A   25357.27273114  .00000111  00000+0  56791-4 0  9992",
        "tle_line2": "2 39086  98.5503 181.0656 0002963  89.0071 271.1452 14.32760508670416"
      },
      "geometry": {
        "type": "Point",
        "coordinates": [
          5.783013153226988,
          25.988287535011587
        ]
      }
    },
    {
      "type": "Feature",
      "properties": {
        "norad_id": 39150,
        "name": "GAOFEN-1",
        "group": "resource",
        "lat": -48.93360493773032,
        "lon": -120.95245198727397,
        "alt_km": 653.777724775965,
        "timestamp": "2025-12-23T18:59:31.647108+00:00",
        "meta_object_name": "GAOFEN-1",
        "meta_object_id": "2013-018A",
        "meta_epoch": "2025-12-23T06:34:20.570016",
        "meta_mean_motion": 14.76495785,
        "meta_eccentricity": 0.00184791,
        "meta_inclination": 97.9317,
        "meta_ra_of_asc_node": 67.7467,
        "meta_arg_of_pericenter": 111.0246,
        "meta_mean_anomaly": 249.2943,
        "meta_ephemeris_type": 0,
        "meta_classification_type": "U",
        "meta_norad_cat_id": 39150,
        "meta_element_set_no": 999,
        "meta_rev_at_epoch": 68228,
        "meta_bstar": 5.9005221e-05,
        "meta_mean_motion_dot": 3.61e-06,
        "meta_mean_motion_ddot": 0,
        "tle_line1": "1 39150U 13018A   25357.27384919  .00000361  00000+0  59005-4 0  9998",
        "tle_line2": "2 39150  97.9317  67.7467 0018479 111.0246 249.2943 14.76495785682282"
      },
      "geometry": {
        "type": "Point",
        "coordinates": [
          -120.95245198727397,
          -48.93360493773032
        ]
      }
    },
    {
      "type": "Feature",
      "properties": {
        "norad_id": 39160,
        "name": "VNREDSAT 1",
        "group": "resource",
        "lat": -11.413908149241129,
        "lon": -128.93518455539464,
        "alt_km": 681.9260932141287,
        "timestamp": "2025-12-23T18:59:31.647118+00:00",
        "meta_object_name": "VNREDSAT 1",
        "meta_object_id": "2013-021B",
        "meta_epoch": "2025-12-23T06:38:46.579200",
        "meta_mean_motion": 14.6493803,
        "meta_eccentricity": 0.00011881,
        "meta_inclination": 97.9359,
        "meta_ra_of_asc_node": 52.1823,
        "meta_arg_of_pericenter": 82.3539,
        "meta_mean_anomaly": 277.78,
        "meta_ephemeris_type": 0,
        "meta_classification_type": "U",
        "meta_norad_cat_id": 39160,
        "meta_element_set_no": 999,
        "meta_rev_at_epoch": 67453,
        "meta_bstar": 0.00015773426,
        "meta_mean_motion_dot": 7.98e-06,
        "meta_mean_motion_ddot": 0,
        "tle_line1": "1 39160U 13021B   25357.27692800  .00000798  00000+0  15773-3 0  9991",
        "tle_line2": "2 39160  97.9359  52.1823 0001188  82.3539 277.7800 14.64938030674536"
      },
      "geometry": {
        "type": "Point",
        "coordinates": [
          -128.93518455539464,
          -11.413908149241129
        ]
      }
    }
  ]
}